STARLINK-37150
1 68315U 26057X   26092.58335648 -.01646408  74960-3 -53380-2 0  9995
2 68315  97.2746 216.1189 0001546  72.6763 142.1090 15.90868097  3109
